$$SOE
2460154.500000000, A.D. 2023-Jul-29 00:00:00.0000, -1.872909705044738E+08, 2.244196474613843E+08, 5.828080111454397E+07,
2460161.500000000, A.D. 2023-Aug-05 00:00:00.0000, -1.974520863818080E+08, 2.179038699826131E+08, 5.476315617637022E+07,
2460168.500000000, A.D. 2023-Aug-12 00:00:00.0000, -2.072551239368089E+08, 2.109928304974919E+08, 5.114616988986188E+07,
2460175.500000000, A.D. 2023-Aug-19 00:00:00.0000, -2.166861780580305E+08, 2.037030056787826E+08, 4.743735924680848E+07,
2460182.500000000, A.D. 2023-Aug-26 00:00:00.0000, -2.257322337643386E+08, 1.960511578194901E+08, 4.364423919055328E+07,
2460189.500000000, A.D. 2023-Sep-02 00:00:00.0000, -2.343811492560937E+08, 1.880542970149229E+08, 3.977431108055009E+07,
2460196.500000000, A.D. 2023-Sep-09 00:00:00.0000, -2.426216380718024E+08, 1.797296459416407E+08, 3.583505221674712E+07,
2460203.500000000, A.D. 2023-Sep-16 00:00:00.0000, -2.504432504250779E+08, 1.710946070753834E+08, 3.183390633952270E+07,
2460210.500000000, A.D. 2023-Sep-23 00:00:00.0000, -2.578363535245633E+08, 1.621667325243078E+08, 2.777827502551543E+07,
2460217.500000000, A.D. 2023-Sep-30 00:00:00.0000, -2.647921114137803E+08, 1.529636975491201E+08, 2.367551004299782E+07,
2460224.500000000, A.D. 2023-Oct-07 00:00:00.0000, -2.713024668663739E+08, 1.435032771045156E+08, 1.953290677446507E+07,
2460231.500000000, A.D. 2023-Oct-14 00:00:00.0000, -2.773601244585875E+08, 1.338033219697798E+08, 1.535769827714283E+07,
2460238.500000000, A.D. 2023-Oct-21 00:00:00.0000, -2.829585317169703E+08, 1.238817359449346E+08, 1.115704975364559E+07,
2460245.500000000, A.D. 2023-Oct-28 00:00:00.0000, -2.880918598800382E+08, 1.137564562322433E+08, 6.938053688260138E+06,
2460252.500000000, A.D. 2023-Nov-04 00:00:00.0000, -2.927549856397126E+08, 1.034454361022992E+08, 2.707725643257059E+06,
2460259.500000000, A.D. 2023-Nov-11 00:00:00.0000, -2.969434737805383E+08, 9.296662912318048E+07, -1.526999405959681E+06,
2460266.500000000, A.D. 2023-Nov-18 00:00:00.0000, -3.006535605735203E+08, 8.233797476409656E+07, -5.759270276105300E+06,
2460273.500000000, A.D. 2023-Nov-25 00:00:00.0000, -3.038821379178287E+08, 7.157738527171643E+07, -9.982322378139433E+06,
2460280.500000000, A.D. 2023-Dec-02 00:00:00.0000, -3.066267382600675E+08, 6.070273368710226E+07, -1.418948016958045E+07,
2460287.500000000, A.D. 2023-Dec-09 00:00:00.0000, -3.088855202628226E+08, 4.973184282863187E+07, -1.837415931735089E+07,
2460294.500000000, A.D. 2023-Dec-16 00:00:00.0000, -3.106572549745533E+08, 3.868247514442912E+07, -2.252986864335786E+07,
2460301.500000000, A.D. 2023-Dec-23 00:00:00.0000, -3.119413121780830E+08, 2.757232401930025E+07, -2.665021187258059E+07,
2460308.500000000, A.D. 2023-Dec-30 00:00:00.0000, -3.127376482674837E+08, 1.641900748459769E+07, -3.072888901387000E+07,
2460315.500000000, A.D. 2024-Jan-06 00:00:00.0000, -3.130467974282454E+08, 5.240061863920683E+06, -3.475969743768897E+07,
2460322.500000000, A.D. 2024-Jan-13 00:00:00.0000, -3.128698629553851E+08, -5.947066561477894E+06, -3.873653312175955E+07,
2460329.500000000, A.D. 2024-Jan-20 00:00:00.0000, -3.122085074945059E+08, -1.712502888720663E+07, -4.265339195731821E+07,
2460336.500000000, A.D. 2024-Jan-27 00:00:00.0000, -3.110649442424029E+08, -2.827657936727580E+07, -4.650437091098932E+07,
2460343.500000000, A.D. 2024-Feb-03 00:00:00.0000, -3.094419295458693E+08, -3.938458068252553E+07, -5.028366911790425E+07,
2460350.500000000, A.D. 2024-Feb-10 00:00:00.0000, -3.073427566240330E+08, -5.043200906779003E+07, -5.398558899124815E+07,
2460357.500000000, A.D. 2024-Feb-17 00:00:00.0000, -3.047712502644268E+08, -6.140195936808912E+07, -5.760453739123710E+07,
2460364.500000000, A.D. 2024-Feb-24 00:00:00.0000, -3.017317624381127E+08, -7.227765009013462E+07, -6.113502688315540E+07,
2460371.500000000, A.D. 2024-Mar-02 00:00:00.0000, -2.982291687837748E+08, -8.304242856431548E+07, -6.457167711627877E+07,
2460378.500000000, A.D. 2024-Mar-09 00:00:00.0000, -2.942688658004608E+08, -9.367977636199823E+07, -6.790921636787418E+07,
2460385.500000000, A.D. 2024-Mar-16 00:00:00.0000, -2.898567683306261E+08, -1.041733148510263E+08, -7.114248329857248E+07,
2460392.500000000, A.D. 2024-Mar-23 00:00:00.0000, -2.849993074109700E+08, -1.145068098582811E+08, -7.426642884446892E+07,
2460399.500000000, A.D. 2024-Mar-30 00:00:00.0000, -2.797034307023293E+08, -1.246641755429924E+08, -7.727611806723844E+07,
2460406.500000000, A.D. 2024-Apr-06 00:00:00.0000, -2.739766052120709E+08, -1.346294809259297E+08, -8.016673228622787E+07,
2460413.500000000, A.D. 2024-Apr-13 00:00:00.0000, -2.678268187271329E+08, -1.443869583128396E+08, -8.293357177486613E+07,
2460420.500000000, A.D. 2024-Apr-20 00:00:00.0000, -2.612625808712429E+08, -1.539210110053392E+08, -8.557205873533121E+07,
2460427.500000000, A.D. 2024-Apr-27 00:00:00.0000, -2.542929252540807E+08, -1.632162209319730E+08, -8.807774047300790E+07,
2460434.500000000, A.D. 2024-May-04 00:00:00.0000, -2.469274125699952E+08, -1.722573569820524E+08, -9.044629285145691E+07,
2460441.500000000, A.D. 2024-May-11 00:00:00.0000, -2.391761343541340E+08, -1.810293842291622E+08, -9.267352407828510E+07,
2460448.500000000, A.D. 2024-May-18 00:00:00.0000, -2.310497172602615E+08, -1.895174741070968E+08, -9.475537885173196E+07,
2460455.500000000, A.D. 2024-May-25 00:00:00.0000, -2.225593277774946E+08, -1.977070156264178E+08, -9.668794289552075E+07,
2460462.500000000, A.D. 2024-Jun-01 00:00:00.0000, -2.137166772613418E+08, -2.055836277676117E+08, -9.846744791585746E+07,
2460469.500000000, A.D. 2024-Jun-08 00:00:00.0000, -2.045340269605275E+08, -2.131331731507097E+08, -1.000902770269473E+08,
2460476.500000000, A.D. 2024-Jun-15 00:00:00.0000, -1.950241925598579E+08, -2.203417725119215E+08, -1.015529706565383E+08,
2460483.500000000, A.D. 2024-Jun-22 00:00:00.0000, -1.852005491546126E+08, -2.271958188863461E+08, -1.028522327595029E+08,
2460490.500000000, A.D. 2024-Jun-29 00:00:00.0000, -1.750770386773819E+08, -2.336819933916614E+08, -1.039849373073858E+08,
2460497.500000000, A.D. 2024-Jul-06 00:00:00.0000, -1.646681770230900E+08, -2.397872851605601E+08, -1.049481355126781E+08,
2460504.500000000, A.D. 2024-Jul-13 00:00:00.0000, -1.539890588070931E+08, -2.454990126740548E+08, -1.057390637501120E+08,
2460511.500000000, A.D. 2024-Jul-20 00:00:00.0000, -1.430553616157653E+08, -2.508048454179891E+08, -1.063551519097582E+08,
2460518.500000000, A.D. 2024-Jul-27 00:00:00.0000, -1.318833502666748E+08, -2.556928268879169E+08, -1.067940322066469E+08,
2460525.500000000, A.D. 2024-Aug-03 00:00:00.0000, -1.204898806529024E+08, -2.601513993779630E+08, -1.070535485049081E+08,
2460532.500000000, A.D. 2024-Aug-10 00:00:00.0000, -1.088924028385241E+08, -2.641694306143730E+08, -1.071317661713790E+08,
2460539.500000000, A.D. 2024-Aug-17 00:00:00.0000, -9.710896317759892E+07, -2.677362422638487E+08, -1.070269824593324E+08,
2460546.500000000, A.D. 2024-Aug-24 00:00:00.0000, -8.515820523722106E+07, -2.708416403832042E+08, -1.067377374221786E+08,
2460553.500000000, A.D. 2024-Aug-31 00:00:00.0000, -7.305936920470893E+07, -2.734759479049921E+08, -1.062628253626855E+08,
2460560.500000000, A.D. 2024-Sep-07 00:00:00.0000, -6.083228919456867E+07, -2.756300390532883E+08, -1.056013068242860E+08,
2460567.500000000, A.D. 2024-Sep-14 00:00:00.0000, -4.849738813711093E+07, -2.772953747002035E+08, -1.047525210275588E+08,
2460574.500000000, A.D. 2024-Sep-21 00:00:00.0000, -3.607567203187163E+07, -2.784640382388757E+08, -1.037160985000333E+08,
2460581.500000000, A.D. 2024-Sep-28 00:00:00.0000, -2.358872379446815E+07, -2.791287751672940E+08, -1.024919740753549E+08,
2460588.500000000, A.D. 2024-Oct-05 00:00:00.0000, -1.105869275608329E+07, -2.792830363262762E+08, -1.010804005437427E+08,
2460595.500000000, A.D. 2024-Oct-12 00:00:00.0000, 1.491720107363618E+06, -2.789210217297391E+08, -9.948196260839130E+07,
2460602.500000000, A.D. 2024-Oct-19 00:00:00.0000, 1.403927976627059E+07, -2.780377251446729E+08, -9.769759092715909E+07,
2460609.500000000, A.D. 2024-Oct-26 00:00:00.0000, 2.656023783264463E+07, -2.766289800804449E+08, -9.572857621409851E+07,
2460616.500000000, A.D. 2024-Nov-02 00:00:00.0000, 3.903035693702719E+07, -2.746915071671576E+08, -9.357658334568675E+07,
2460623.500000000, A.D. 2024-Nov-09 00:00:00.0000, 5.142493919657644E+07, -2.722229626996322E+08, -9.124366537774809E+07,
2460630.500000000, A.D. 2024-Nov-16 00:00:00.0000, 6.371885910527822E+07, -2.692219881001383E+08, -8.873227735544068E+07,
2460637.500000000, A.D. 2024-Nov-23 00:00:00.0000, 7.588660119327402E+07, -2.656882600565983E+08, -8.604528978564678E+07,
2460644.500000000, A.D. 2024-Nov-30 00:00:00.0000, 8.790230295382158E+07, -2.616225410409282E+08, -8.318600163929285E+07,
2460651.500000000, A.D. 2024-Dec-07 00:00:00.0000, 9.973980372878432E+07, -2.570267294012380E+08, -8.015815271620463E+07,
2460658.500000000, A.D. 2024-Dec-14 00:00:00.0000, 1.113726991099850E+08, -2.519039073658322E+08, -7.696593502087027E+07,
2460665.500000000, A.D. 2024-Dec-21 00:00:00.0000, 1.227743987510914E+08, -2.462583877058991E+08, -7.361400283343334E+07,
2460672.500000000, A.D. 2024-Dec-28 00:00:00.0000, 1.339181897364451E+08, -2.400957614754276E+08, -7.010748168178079E+07,
2460679.500000000, A.D. 2025-Jan-04 00:00:00.0000, 1.447773082306358E+08, -2.334229438573189E+08, -6.645197603239192E+07,
2460686.500000000, A.D. 2025-Jan-11 00:00:00.0000, 1.553250176533428E+08, -2.262482158175502E+08, -6.265357516225041E+07,
2460693.500000000, A.D. 2025-Jan-18 00:00:00.0000, 1.655346924566630E+08, -2.185812618025715E+08, -5.871885695912696E+07,
2460700.500000000, A.D. 2025-Jan-25 00:00:00.0000, 1.753799076627626E+08, -2.104332032303032E+08, -5.465488946242884E+07,
2460707.500000000, A.D. 2025-Feb-01 00:00:00.0000, 1.848345341768543E+08, -2.018166270487972E+08, -5.046922991460631E+07,
2460714.500000000, A.D. 2025-Feb-08 00:00:00.0000, 1.938728396603720E+08, -1.927456085649549E+08, -4.616992108026218E+07,
$$EOE